{
"type": "FeatureCollection",
"name": "Utica_Area_Counties_2025",
"crs": { "type": "name", "properties": { "name": "urn:ogc:def:crs:OGC:1.3:CRS84" } },
"features": [
{ "type": "Feature", "properties": { "STATEFP": "39", "COUNTYFP": "019", "GEOID": "39019", "NAME": "Carroll", "NAMELSAD": "Carroll County", "ALAND": 1022198379, "AWATER": 11183048 }, "geometry": { "type": "Polygon", "coordinates": [ [ [ -81.321006, 40.579308 ], [ -81.319138, 40.615479 ], [ -81.317983, 40.644557 ], [ -81.317739, 40.651579 ], [ -81.317748, 40.651937 ], [ -81.304176, 40.651702 ], [ -81.304034, 40.6517 ], [ -81.290334, 40.651449 ], [ -81.279044, 40.651235 ], [ -81.249673, 40.650681 ], [ -81.24125, 40.650534 ], [ -81.241224, 40.652614 ], [ -81.240561, 40.662861 ], [ -81.239673, 40.67877 ], [ -81.238515, 40.699988 ], [ -81.237725, 40.715189 ], [ -81.237721, 40.715287 ], [ -81.237227, 40.723542 ], [ -81.225106, 40.723136 ], [ -81.19909, 40.722208 ], [ -81.198737, 40.729147 ], [ -81.152732, 40.728526 ], [ -81.145668, 40.728427 ], [ -81.133149, 40.728241 ], [ -81.12108, 40.728089 ], [ -81.116916, 40.728064 ], [ -81.116256, 40.728061 ], [ -81.112505, 40.728034 ], [ -81.111693, 40.728 ], [ -81.108251, 40.727991 ], [ -81.10225, 40.727943 ], [ -81.095877, 40.727914 ], [ -81.09312, 40.727881 ], [ -81.087289, 40.727816 ], [ -81.084681, 40.727984 ], [ -81.043399, 40.727427 ], [ -81.037232, 40.727377 ], [ -81.00208, 40.727142 ], [ -80.994297, 40.727029 ], [ -80.974818, 40.727003 ], [ -80.917172, 40.726934 ], [ -80.917491, 40.672706 ], [ -80.917357, 40.670281 ], [ -80.918125, 40.643464 ], [ -80.865757, 40.642647 ], [ -80.860822, 40.64257 ], [ -80.861458, 40.625062 ], [ -80.861344, 40.622755 ], [ -80.861362, 40.62204 ], [ -80.861365, 40.621979 ], [ -80.861432, 40.619627 ], [ -80.861994, 40.599404 ], [ -80.862125, 40.595574 ], [ -80.863219, 40.564951 ], [ -80.863567, 40.555411 ], [ -80.880657, 40.555674 ], [ -80.92092, 40.556315 ], [ -80.921099, 40.552911 ], [ -80.922377, 40.523134 ], [ -80.923578, 40.489807 ], [ -80.92377, 40.48371 ], [ -80.923884, 40.47889 ], [ -80.924337, 40.47624 ], [ -80.924192, 40.472166 ], [ -80.924705, 40.467977 ], [ -80.940153, 40.468349 ], [ -80.940512, 40.458667 ], [ -80.940676, 40.455362 ], [ -80.940779, 40.447451 ], [ -80.941911, 40.4247 ], [ -80.960734, 40.425024 ], [ -80.999816, 40.426014 ], [ -81.038268, 40.427183 ], [ -81.041029, 40.427269 ], [ -81.060369, 40.427741 ], [ -81.08126, 40.428351 ], [ -81.086247, 40.428562 ], [ -81.090468, 40.428723 ], [ -81.091253, 40.428703 ], [ -81.100097, 40.428928 ], [ -81.100076, 40.430596 ], [ -81.138957, 40.431722 ], [ -81.139841, 40.431753 ], [ -81.157882, 40.432238 ], [ -81.18031, 40.432787 ], [ -81.191035, 40.433098 ], [ -81.212309, 40.433457 ], [ -81.212348, 40.431577 ], [ -81.246554, 40.432758 ], [ -81.249829, 40.432999 ], [ -81.269951, 40.433486 ], [ -81.268431, 40.476816 ], [ -81.26827, 40.482759 ], [ -81.26747, 40.506112 ], [ -81.267112, 40.513477 ], [ -81.266385, 40.529668 ], [ -81.264902, 40.561635 ], [ -81.264744, 40.565042 ], [ -81.268575, 40.565158 ], [ -81.277052, 40.565414 ], [ -81.321659, 40.566648 ], [ -81.321006, 40.579308 ] ] ] } },
{ "type": "Feature", "properties": { "STATEFP": "39", "COUNTYFP": "067", "GEOID": "39067", "NAME": "Harrison", "NAMELSAD": "Harrison County", "ALAND": 1042032639, "AWATER": 21847163 }, "geometry": { "type": "Polygon", "coordinates": [ [ [ -81.338064, 40.214077 ], [ -81.337524, 40.229877 ], [ -81.337401, 40.23053 ], [ -81.335389, 40.288189 ], [ -81.335239, 40.2915 ], [ -81.334601, 40.304316 ], [ -81.327787, 40.304048 ], [ -81.32508, 40.30416 ], [ -81.284886, 40.30344 ], [ -81.275319, 40.303434 ], [ -81.274142, 40.332632 ], [ -81.273695, 40.345465 ], [ -81.273148, 40.357547 ], [ -81.27254, 40.369099 ], [ -81.27172, 40.3891 ], [ -81.271224, 40.398908 ], [ -81.269951, 40.433486 ], [ -81.249829, 40.432999 ], [ -81.246554, 40.432758 ], [ -81.212348, 40.431577 ], [ -81.212309, 40.433457 ], [ -81.191035, 40.433098 ], [ -81.18031, 40.432787 ], [ -81.157882, 40.432238 ], [ -81.139841, 40.431753 ], [ -81.138957, 40.431722 ], [ -81.100076, 40.430596 ], [ -81.100097, 40.428928 ], [ -81.091253, 40.428703 ], [ -81.090468, 40.428723 ], [ -81.086247, 40.428562 ], [ -81.08126, 40.428351 ], [ -81.060369, 40.427741 ], [ -81.041029, 40.427269 ], [ -81.038268, 40.427183 ], [ -80.999816, 40.426014 ], [ -80.960734, 40.425024 ], [ -80.941911, 40.4247 ], [ -80.889934, 40.423349 ], [ -80.889837, 40.423592 ], [ -80.877739, 40.423264 ], [ -80.871488, 40.423281 ], [ -80.865504, 40.422929 ], [ -80.866026, 40.408445 ], [ -80.866546, 40.392586 ], [ -80.867057, 40.381714 ], [ -80.867201, 40.379378 ], [ -80.871553, 40.379458 ], [ -80.872266, 40.373721 ], [ -80.872129, 40.365698 ], [ -80.872194, 40.360739 ], [ -80.872797, 40.350107 ], [ -80.873711, 40.329186 ], [ -80.873725, 40.328963 ], [ -80.874868, 40.309486 ], [ -80.875452, 40.295929 ], [ -80.875632, 40.291779 ], [ -80.876621, 40.275596 ], [ -80.878245, 40.247677 ], [ -80.879808, 40.216926 ], [ -80.879878, 40.21549 ], [ -80.880232, 40.215047 ], [ -80.879916, 40.214164 ], [ -80.879968, 40.213139 ], [ -80.879975, 40.213001 ], [ -80.880461, 40.203999 ], [ -80.881595, 40.183308 ], [ -80.881898, 40.178178 ], [ -80.882892, 40.159495 ], [ -80.919242, 40.160751 ], [ -80.942443, 40.161716 ], [ -80.970154, 40.162566 ], [ -80.977791, 40.162801 ], [ -80.980399, 40.162903 ], [ -80.991492, 40.163335 ], [ -81.035504, 40.164874 ], [ -81.051432, 40.165474 ], [ -81.079318, 40.166624 ], [ -81.093892, 40.167162 ], [ -81.112072, 40.167917 ], [ -81.111949, 40.1711 ], [ -81.130259, 40.171058 ], [ -81.134704, 40.171028 ], [ -81.13652, 40.171088 ], [ -81.140838, 40.171051 ], [ -81.153651, 40.171321 ], [ -81.187434, 40.17193 ], [ -81.225811, 40.172694 ], [ -81.225924, 40.170075 ], [ -81.243645, 40.17038 ], [ -81.339565, 40.171999 ], [ -81.338064, 40.214077 ] ] ] } },
{ "type": "Feature", "properties": { "STATEFP": "39", "COUNTYFP": "157", "GEOID": "39157", "NAME": "Tuscarawas", "NAMELSAD": "Tuscarawas County", "ALAND": 1470097268, "AWATER": 10250140 }, "geometry": { "type": "Polygon", "coordinates": [ [ [ -81.712366, 40.371101 ], [ -81.711602, 40.389711 ], [ -81.711501, 40.392181 ], [ -81.70956, 40.436879 ], [ -81.709316, 40.441568 ], [ -81.709198, 40.443888 ], [ -81.709132, 40.444775 ], [ -81.707117, 40.444894 ], [ -81.69859, 40.444697 ], [ -81.697406, 40.444661 ], [ -81.689011, 40.444399 ], [ -81.669765, 40.443892 ], [ -81.668062, 40.487903 ], [ -81.667802, 40.494627 ], [ -81.66752, 40.501796 ], [ -81.667058, 40.509561 ], [ -81.66676, 40.516818 ], [ -81.665942, 40.535362 ], [ -81.665112, 40.554193 ], [ -81.66549, 40.560921 ], [ -81.664793, 40.578757 ], [ -81.664489, 40.591528 ], [ -81.662777, 40.627269 ], [ -81.665199, 40.627355 ], [ -81.668187, 40.627465 ], [ -81.66795, 40.632379 ], [ -81.64911, 40.634525 ], [ -81.605001, 40.639548 ], [ -81.57794, 40.64264 ], [ -81.566188, 40.64398 ], [ -81.553743, 40.645353 ], [ -81.537606, 40.647102 ], [ -81.510397, 40.650247 ], [ -81.508912, 40.650415 ], [ -81.48703, 40.652864 ], [ -81.469104, 40.654941 ], [ -81.467461, 40.655914 ], [ -81.464395, 40.660567 ], [ -81.461265, 40.666106 ], [ -81.459896, 40.666831 ], [ -81.458952, 40.666955 ], [ -81.455521, 40.666582 ], [ -81.451969, 40.665582 ], [ -81.449468, 40.665384 ], [ -81.443494, 40.663916 ], [ -81.438317, 40.662994 ], [ -81.43582, 40.661402 ], [ -81.434814, 40.659349 ], [ -81.436027, 40.658264 ], [ -81.440664, 40.657652 ], [ -81.444591, 40.655304 ], [ -81.447821, 40.653836 ], [ -81.446925, 40.65364 ], [ -81.434015, 40.653457 ], [ -81.412788, 40.653232 ], [ -81.393239, 40.653009 ], [ -81.374947, 40.652785 ], [ -81.373473, 40.652763 ], [ -81.361701, 40.652618 ], [ -81.357261, 40.652565 ], [ -81.355687, 40.652538 ], [ -81.355484, 40.652535 ], [ -81.352425, 40.65249 ], [ -81.317876, 40.651934 ], [ -81.317739, 40.651579 ], [ -81.317983, 40.644557 ], [ -81.319138, 40.615479 ], [ -81.321006, 40.579308 ], [ -81.321659, 40.566648 ], [ -81.277052, 40.565414 ], [ -81.268575, 40.565158 ], [ -81.264744, 40.565042 ], [ -81.264902, 40.561635 ], [ -81.266385, 40.529668 ], [ -81.267112, 40.513477 ], [ -81.26747, 40.506112 ], [ -81.26827, 40.482759 ], [ -81.268431, 40.476816 ], [ -81.269951, 40.433486 ], [ -81.271224, 40.398908 ], [ -81.27172, 40.3891 ], [ -81.27254, 40.369099 ], [ -81.273148, 40.357547 ], [ -81.273695, 40.345465 ], [ -81.274142, 40.332632 ], [ -81.275319, 40.303434 ], [ -81.284886, 40.30344 ], [ -81.32508, 40.30416 ], [ -81.327787, 40.304048 ], [ -81.334601, 40.304316 ], [ -81.335239, 40.2915 ], [ -81.335389, 40.288189 ], [ -81.337401, 40.23053 ], [ -81.337524, 40.229877 ], [ -81.338064, 40.214077 ], [ -81.399186, 40.215681 ], [ -81.39933, 40.2157 ], [ -81.411858, 40.216018 ], [ -81.429948, 40.216453 ], [ -81.43325, 40.21654 ], [ -81.437058, 40.216638 ], [ -81.487045, 40.217922 ], [ -81.505007, 40.218545 ], [ -81.511344, 40.218675 ], [ -81.51799, 40.218825 ], [ -81.524608, 40.218951 ], [ -81.528028, 40.219027 ], [ -81.552394, 40.219642 ], [ -81.552701, 40.219643 ], [ -81.622351, 40.221306 ], [ -81.62078, 40.262378 ], [ -81.62033, 40.271447 ], [ -81.620177, 40.273815 ], [ -81.61975, 40.283364 ], [ -81.619222, 40.295031 ], [ -81.619155, 40.296822 ], [ -81.61802, 40.330488 ], [ -81.616307, 40.368125 ], [ -81.622268, 40.368292 ], [ -81.681446, 40.369998 ], [ -81.682634, 40.370036 ], [ -81.68323, 40.369944 ], [ -81.684161, 40.36997 ], [ -81.70015, 40.370584 ], [ -81.710425, 40.370688 ], [ -81.712383, 40.370763 ], [ -81.712366, 40.371101 ] ] ] } },
{ "type": "Feature", "properties": { "STATEFP": "39", "COUNTYFP": "029", "GEOID": "39029", "NAME": "Columbiana", "NAMELSAD": "Columbiana County", "ALAND": 1377692484, "AWATER": 7277033 }, "geometry": { "type": "Polygon", "coordinates": [ [ [ -81.087391, 40.729443 ], [ -81.087278, 40.731517 ], [ -81.087235, 40.738898 ], [ -81.087258, 40.738992 ], [ -81.087208, 40.740263 ], [ -81.087137, 40.747054 ], [ -81.087081, 40.749516 ], [ -81.087082, 40.749863 ], [ -81.087093, 40.751321 ], [ -81.086757, 40.813936 ], [ -81.087041, 40.813951 ], [ -81.086819, 40.850123 ], [ -81.086758, 40.872537 ], [ -81.086734, 40.886299 ], [ -81.086723, 40.887004 ], [ -81.086686, 40.898858 ], [ -81.086679, 40.901609 ], [ -81.077119, 40.901585 ], [ -81.067116, 40.901554 ], [ -81.049737, 40.901508 ], [ -81.048475, 40.901508 ], [ -81.037128, 40.901479 ], [ -81.031994, 40.901469 ], [ -81.024052, 40.901481 ], [ -81.018961, 40.901504 ], [ -80.994158, 40.901535 ], [ -80.974906, 40.901455 ], [ -80.974153, 40.901451 ], [ -80.961216, 40.901403 ], [ -80.958254, 40.901392 ], [ -80.952604, 40.901377 ], [ -80.944005, 40.901308 ], [ -80.943338, 40.901302 ], [ -80.914275, 40.90108 ], [ -80.896032, 40.900995 ], [ -80.895998, 40.905368 ], [ -80.895813, 40.930187 ], [ -80.891285, 40.9302 ], [ -80.890482, 40.930068 ], [ -80.875978, 40.930052 ], [ -80.85637, 40.929963 ], [ -80.84043, 40.929724 ], [ -80.821635, 40.929775 ], [ -80.821907, 40.911336 ], [ -80.821912, 40.90951 ], [ -80.821936, 40.908276 ], [ -80.821923, 40.900935 ], [ -80.819814, 40.900909 ], [ -80.811459, 40.900866 ], [ -80.807067, 40.900861 ], [ -80.786937, 40.900698 ], [ -80.785155, 40.900798 ], [ -80.783382, 40.900761 ], [ -80.777974, 40.900728 ], [ -80.765202, 40.900641 ], [ -80.760049, 40.900603 ], [ -80.759259, 40.900594 ], [ -80.745671, 40.900472 ], [ -80.739017, 40.90043 ], [ -80.729331, 40.900367 ], [ -80.71176, 40.900241 ], [ -80.707065, 40.900204 ], [ -80.70475, 40.900186 ], [ -80.698618, 40.900119 ], [ -80.697551, 40.900096 ], [ -80.69018, 40.900016 ], [ -80.688703, 40.900037 ], [ -80.679361, 40.899928 ], [ -80.650877, 40.89984 ], [ -80.649372, 40.89991 ], [ -80.632067, 40.899782 ], [ -80.618399, 40.899851 ], [ -80.575784, 40.900091 ], [ -80.544615, 40.900257 ], [ -80.519777423230707, 40.900324199129599 ], [ -80.519764, 40.899858 ], [ -80.519002, 40.877543 ], [ -80.519019170179604, 40.851339398102802 ], [ -80.5190199803735, 40.850102952153101 ], [ -80.51902, 40.850073 ], [ -80.519081, 40.849157 ], [ -80.519055610564195, 40.835482078702 ], [ -80.519013626493503, 40.812869175217799 ], [ -80.518992, 40.801221 ], [ -80.519058, 40.792298 ], [ -80.519057973458104, 40.792237192532497 ], [ -80.519056754253896, 40.789443995742403 ], [ -80.519054295488601, 40.783810964368499 ], [ -80.519050363161298, 40.774802002460397 ], [ -80.519032440405795, 40.733740969689897 ], [ -80.519028983849793, 40.725822 ], [ -80.519025243728194, 40.717253381264001 ], [ -80.519012718890806, 40.688558978734697 ], [ -80.519006375939497, 40.674027277351001 ], [ -80.519004080579293, 40.6687686072408 ], [ -80.518997672861104, 40.6540885247747 ], [ -80.518995603464404, 40.649347536924203 ], [ -80.518992851813607, 40.643043505057101 ], [ -80.518991, 40.638801 ], [ -80.521917, 40.636992 ], [ -80.52566, 40.636068 ], [ -80.530093, 40.636255 ], [ -80.532737, 40.63559 ], [ -80.539541, 40.632122 ], [ -80.545892, 40.629702 ], [ -80.551126, 40.628847 ], [ -80.552953026293196, 40.627863026177103 ], [ -80.56072, 40.62368 ], [ -80.563419473156003, 40.621356633216301 ], [ -80.56784, 40.617552 ], [ -80.571936, 40.615456 ], [ -80.575155031523295, 40.614629781909002 ], [ -80.576736, 40.614224 ], [ -80.579856, 40.614304 ], [ -80.5805278407164, 40.614520298202599 ], [ -80.583633, 40.61552 ], [ -80.589093036231802, 40.620045809500098 ], [ -80.589118234139903, 40.620066695979098 ], [ -80.592049, 40.622496 ], [ -80.594065, 40.623664 ], [ -80.598764, 40.625263 ], [ -80.603876, 40.625064 ], [ -80.610198324855702, 40.623307972446497 ], [ -80.616002, 40.621696 ], [ -80.627171, 40.619936 ], [ -80.632502339609204, 40.6170855440647 ], [ -80.634355, 40.616095 ], [ -80.637124889158102, 40.613440339112998 ], [ -80.639379, 40.61128 ], [ -80.639588096520299, 40.610994214784498 ], [ -80.642611266702005, 40.606862260123599 ], [ -80.644454568751598, 40.604342904600202 ], [ -80.644963, 40.603648 ], [ -80.651716, 40.597744 ], [ -80.653972, 40.59648 ], [ -80.655188, 40.596544 ], [ -80.657065082355601, 40.595285825492603 ], [ -80.662564, 40.5916 ], [ -80.665892, 40.587728 ], [ -80.667957, 40.582496 ], [ -80.670317, 40.582529 ], [ -80.708046, 40.582975 ], [ -80.719799, 40.583103 ], [ -80.73876, 40.583199 ], [ -80.74732, 40.583327 ], [ -80.747112, 40.596991 ], [ -80.747736, 40.596959 ], [ -80.810537, 40.598149 ], [ -80.81791, 40.598305 ], [ -80.822859, 40.598385 ], [ -80.830547, 40.598528 ], [ -80.861994, 40.599404 ], [ -80.861432, 40.619627 ], [ -80.861365, 40.621979 ], [ -80.861362, 40.62204 ], [ -80.861344, 40.622755 ], [ -80.861458, 40.625062 ], [ -80.860822, 40.64257 ], [ -80.865757, 40.642647 ], [ -80.918125, 40.643464 ], [ -80.917357, 40.670281 ], [ -80.917491, 40.672706 ], [ -80.917172, 40.726934 ], [ -80.974818, 40.727003 ], [ -80.994297, 40.727029 ], [ -81.00208, 40.727142 ], [ -81.037232, 40.727377 ], [ -81.043399, 40.727427 ], [ -81.084681, 40.727984 ], [ -81.087289, 40.727816 ], [ -81.087391, 40.729443 ] ] ] } },
{ "type": "Feature", "properties": { "STATEFP": "39", "COUNTYFP": "121", "GEOID": "39121", "NAME": "Noble", "NAMELSAD": "Noble County", "ALAND": 1030735773, "AWATER": 16984489 }, "geometry": { "type": "Polygon", "coordinates": [ [ [ -81.697442, 39.755572 ], [ -81.694815, 39.824776 ], [ -81.694146, 39.842636 ], [ -81.682707, 39.842021 ], [ -81.60432, 39.839764 ], [ -81.599162, 39.839738 ], [ -81.580313, 39.839104 ], [ -81.580345, 39.841156 ], [ -81.579449, 39.868684 ], [ -81.578624, 39.896449 ], [ -81.57859, 39.897683 ], [ -81.530508, 39.896316 ], [ -81.492462, 39.895261 ], [ -81.474017, 39.894798 ], [ -81.470589, 39.894717 ], [ -81.464108, 39.89455 ], [ -81.46275, 39.9235 ], [ -81.461717, 39.923595 ], [ -81.405039, 39.922049 ], [ -81.402134, 39.921978 ], [ -81.397978, 39.921644 ], [ -81.397382, 39.921684 ], [ -81.387312, 39.921396 ], [ -81.386809, 39.921518 ], [ -81.386711, 39.92257 ], [ -81.386754, 39.924216 ], [ -81.386682, 39.92758 ], [ -81.386531, 39.92888 ], [ -81.38639, 39.9328 ], [ -81.38644, 39.93346 ], [ -81.386006, 39.950694 ], [ -81.376068, 39.95055 ], [ -81.374157, 39.950383 ], [ -81.367125, 39.950324 ], [ -81.347838, 39.949962 ], [ -81.347761, 39.953633 ], [ -81.32025, 39.953153 ], [ -81.304388, 39.953014 ], [ -81.303932, 39.952797 ], [ -81.235789, 39.951266 ], [ -81.234053, 39.95127 ], [ -81.234139, 39.94939 ], [ -81.234297, 39.949015 ], [ -81.237316, 39.867828 ], [ -81.313591, 39.869471 ], [ -81.314372, 39.84538 ], [ -81.314897, 39.827914 ], [ -81.315661, 39.806983 ], [ -81.316567, 39.784328 ], [ -81.316779, 39.779102 ], [ -81.31718, 39.779084 ], [ -81.317344, 39.772178 ], [ -81.317871, 39.750574 ], [ -81.318244, 39.738579 ], [ -81.31912, 39.707552 ], [ -81.280597, 39.706936 ], [ -81.281233, 39.692195 ], [ -81.280731, 39.678783 ], [ -81.283226, 39.605669 ], [ -81.283079, 39.605663 ], [ -81.28353, 39.591838 ], [ -81.356445, 39.593512 ], [ -81.35629, 39.600865 ], [ -81.366367, 39.601055 ], [ -81.394934, 39.601547 ], [ -81.394683, 39.609465 ], [ -81.394585, 39.614283 ], [ -81.395036, 39.615681 ], [ -81.41385, 39.615874 ], [ -81.413665, 39.630502 ], [ -81.452712, 39.631165 ], [ -81.452625, 39.63187 ], [ -81.452409, 39.635639 ], [ -81.451935, 39.645449 ], [ -81.458435, 39.645607 ], [ -81.468277, 39.645852 ], [ -81.47316, 39.645976 ], [ -81.473492, 39.586327 ], [ -81.473471, 39.583318 ], [ -81.477203, 39.583425 ], [ -81.491253, 39.583835 ], [ -81.524669, 39.584794 ], [ -81.524814, 39.584715 ], [ -81.526174, 39.584647 ], [ -81.530137, 39.584694 ], [ -81.539015, 39.585262 ], [ -81.583965, 39.586802 ], [ -81.588185, 39.586973 ], [ -81.58764, 39.614637 ], [ -81.587941, 39.621464 ], [ -81.58773, 39.622053 ], [ -81.587362, 39.625073 ], [ -81.586132, 39.663993 ], [ -81.594846, 39.664288 ], [ -81.6432, 39.665681 ], [ -81.64218, 39.690663 ], [ -81.6398, 39.752771 ], [ -81.639886, 39.75342 ], [ -81.697461, 39.754995 ], [ -81.697442, 39.755572 ] ] ] } },
{ "type": "Feature", "properties": { "STATEFP": "39", "COUNTYFP": "059", "GEOID": "39059", "NAME": "Guernsey", "NAMELSAD": "Guernsey County", "ALAND": 1352599514, "AWATER": 15666081 }, "geometry": { "type": "Polygon", "coordinates": [ [ [ -81.726055, 39.975633 ], [ -81.725853, 39.979312 ], [ -81.725709, 39.981974 ], [ -81.725562, 39.984632 ], [ -81.724971, 39.994918 ], [ -81.724229, 40.005506 ], [ -81.721099, 40.062636 ], [ -81.720284, 40.078739 ], [ -81.720279, 40.078855 ], [ -81.718859, 40.107825 ], [ -81.716276, 40.152166 ], [ -81.670899, 40.150976 ], [ -81.669189, 40.183806 ], [ -81.66769, 40.208023 ], [ -81.667635, 40.214311 ], [ -81.66759, 40.222468 ], [ -81.636348, 40.221615 ], [ -81.622351, 40.221306 ], [ -81.552701, 40.219643 ], [ -81.552394, 40.219642 ], [ -81.528028, 40.219027 ], [ -81.524608, 40.218951 ], [ -81.51799, 40.218825 ], [ -81.511344, 40.218675 ], [ -81.505007, 40.218545 ], [ -81.487045, 40.217922 ], [ -81.437058, 40.216638 ], [ -81.43325, 40.21654 ], [ -81.429948, 40.216453 ], [ -81.411858, 40.216018 ], [ -81.39933, 40.2157 ], [ -81.399186, 40.215681 ], [ -81.338064, 40.214077 ], [ -81.339565, 40.171999 ], [ -81.243645, 40.17038 ], [ -81.225924, 40.170075 ], [ -81.227044, 40.14324 ], [ -81.227535, 40.128409 ], [ -81.229197, 40.082377 ], [ -81.229864, 40.063153 ], [ -81.230044, 40.057374 ], [ -81.230133, 40.055227 ], [ -81.230148, 40.054639 ], [ -81.230263, 40.051979 ], [ -81.230659, 40.039474 ], [ -81.23191, 40.010453 ], [ -81.23216, 40.004038 ], [ -81.232436, 39.999445 ], [ -81.232392, 39.9941 ], [ -81.234026, 39.953498 ], [ -81.234053, 39.95127 ], [ -81.235789, 39.951266 ], [ -81.303932, 39.952797 ], [ -81.304388, 39.953014 ], [ -81.32025, 39.953153 ], [ -81.347761, 39.953633 ], [ -81.347838, 39.949962 ], [ -81.367125, 39.950324 ], [ -81.374157, 39.950383 ], [ -81.376068, 39.95055 ], [ -81.386006, 39.950694 ], [ -81.38644, 39.93346 ], [ -81.38639, 39.9328 ], [ -81.386531, 39.92888 ], [ -81.386682, 39.92758 ], [ -81.386754, 39.924216 ], [ -81.386711, 39.92257 ], [ -81.386809, 39.921518 ], [ -81.387312, 39.921396 ], [ -81.397382, 39.921684 ], [ -81.397978, 39.921644 ], [ -81.402134, 39.921978 ], [ -81.405039, 39.922049 ], [ -81.461717, 39.923595 ], [ -81.46275, 39.9235 ], [ -81.464108, 39.89455 ], [ -81.470589, 39.894717 ], [ -81.474017, 39.894798 ], [ -81.492462, 39.895261 ], [ -81.530508, 39.896316 ], [ -81.57859, 39.897683 ], [ -81.578624, 39.896449 ], [ -81.579449, 39.868684 ], [ -81.580345, 39.841156 ], [ -81.580313, 39.839104 ], [ -81.599162, 39.839738 ], [ -81.60432, 39.839764 ], [ -81.682707, 39.842021 ], [ -81.694146, 39.842636 ], [ -81.694126, 39.853514 ], [ -81.69356, 39.855561 ], [ -81.693355, 39.864316 ], [ -81.692442, 39.89074 ], [ -81.692516, 39.894437 ], [ -81.692177, 39.89638 ], [ -81.691106, 39.930673 ], [ -81.691104, 39.930756 ], [ -81.716708, 39.931369 ], [ -81.718952, 39.931236 ], [ -81.724197, 39.931481 ], [ -81.724848, 39.931587 ], [ -81.728611, 39.931728 ], [ -81.726055, 39.975633 ] ] ] } },
{ "type": "Feature", "properties": { "STATEFP": "39", "COUNTYFP": "081", "GEOID": "39081", "NAME": "Jefferson", "NAMELSAD": "Jefferson County", "ALAND": 1057037098, "AWATER": 7335056 }, "geometry": { "type": "Polygon", "coordinates": [ [ [ -80.940779, 40.447451 ], [ -80.940676, 40.455362 ], [ -80.940512, 40.458667 ], [ -80.940153, 40.468349 ], [ -80.924705, 40.467977 ], [ -80.924192, 40.472166 ], [ -80.924337, 40.47624 ], [ -80.923884, 40.47889 ], [ -80.92377, 40.48371 ], [ -80.923578, 40.489807 ], [ -80.922377, 40.523134 ], [ -80.921099, 40.552911 ], [ -80.92092, 40.556315 ], [ -80.880657, 40.555674 ], [ -80.863567, 40.555411 ], [ -80.863219, 40.564951 ], [ -80.862125, 40.595574 ], [ -80.861994, 40.599404 ], [ -80.830547, 40.598528 ], [ -80.822859, 40.598385 ], [ -80.81791, 40.598305 ], [ -80.810537, 40.598149 ], [ -80.747736, 40.596959 ], [ -80.747112, 40.596991 ], [ -80.74732, 40.583327 ], [ -80.73876, 40.583199 ], [ -80.719799, 40.583103 ], [ -80.708046, 40.582975 ], [ -80.670317, 40.582529 ], [ -80.667957, 40.582496 ], [ -80.667781, 40.578096 ], [ -80.666917, 40.573664 ], [ -80.662708, 40.570176 ], [ -80.655316, 40.565184 ], [ -80.652436, 40.562544 ], [ -80.64138, 40.548417 ], [ -80.640847260603806, 40.547791596275196 ], [ -80.633107, 40.538705 ], [ -80.630483, 40.537921 ], [ -80.627507, 40.535793 ], [ -80.626020436416198, 40.531512413294799 ], [ -80.623289329260999, 40.523648140884198 ], [ -80.622195, 40.520497 ], [ -80.621470416945002, 40.515946264959801 ], [ -80.620883, 40.512257 ], [ -80.618003, 40.502049 ], [ -80.613556840879397, 40.495814436126402 ], [ -80.609058, 40.489506 ], [ -80.60245, 40.484226 ], [ -80.599794218097401, 40.482872007997997 ], [ -80.599194, 40.482566 ], [ -80.598039100627105, 40.480287414750698 ], [ -80.596442808599605, 40.477137973723501 ], [ -80.595494, 40.475266 ], [ -80.594794, 40.471366 ], [ -80.596094, 40.463366 ], [ -80.5964834700073, 40.462480840892503 ], [ -80.598294, 40.458366 ], [ -80.598669517215598, 40.457836730611902 ], [ -80.602879406966593, 40.451903139074602 ], [ -80.602892418024695, 40.451884800754897 ], [ -80.604395, 40.449767 ], [ -80.604895, 40.446667 ], [ -80.611195, 40.437767 ], [ -80.611468170489601, 40.437046823254597 ], [ -80.612295, 40.434867 ], [ -80.612995, 40.429367 ], [ -80.612295, 40.418567 ], [ -80.612531947083099, 40.412110191986599 ], [ -80.612658868874504, 40.408651573169699 ], [ -80.612695, 40.407667 ], [ -80.611885189950897, 40.404247802015 ], [ -80.611795, 40.403867 ], [ -80.612195, 40.402667 ], [ -80.615195, 40.399867 ], [ -80.628096, 40.395867 ], [ -80.629699374595802, 40.395006652655901 ], [ -80.632196, 40.393667 ], [ -80.633596, 40.390467 ], [ -80.631743288408401, 40.3858361473768 ], [ -80.631596, 40.385468 ], [ -80.63074, 40.3849 ], [ -80.619196, 40.381768 ], [ -80.614396, 40.378768 ], [ -80.611680375102296, 40.376572855432599 ], [ -80.611676496406105, 40.376569720132601 ], [ -80.609695, 40.374968 ], [ -80.609687737265403, 40.374949324396802 ], [ -80.607595, 40.369568 ], [ -80.608695, 40.361968 ], [ -80.609225401939298, 40.360804912870798 ], [ -80.610255589472004, 40.358545875391897 ], [ -80.611796, 40.355168 ], [ -80.612796, 40.347668 ], [ -80.610796, 40.340868 ], [ -80.607612295062097, 40.335630057905597 ], [ -80.602895, 40.327869 ], [ -80.602894682527094, 40.3278681137216 ], [ -80.600495, 40.321169 ], [ -80.599895, 40.317669 ], [ -80.600407310276196, 40.315858837024102 ], [ -80.601931287164206, 40.310474118686599 ], [ -80.602895, 40.307069 ], [ -80.606596, 40.303869 ], [ -80.607391861334193, 40.302727945797898 ], [ -80.610960680190004, 40.297611205510698 ], [ -80.614896, 40.291969 ], [ -80.6150135465397, 40.2915544937809 ], [ -80.616796, 40.285269 ], [ -80.616496081882204, 40.278771273978997 ], [ -80.616196, 40.27227 ], [ -80.618827625225506, 40.2662446729761 ], [ -80.619297, 40.26517 ], [ -80.622497, 40.26177 ], [ -80.622794753661296, 40.261617054827802 ], [ -80.637098, 40.25427 ], [ -80.637198, 40.25507 ], [ -80.644598, 40.25127 ], [ -80.647172788930604, 40.249107177298299 ], [ -80.652098, 40.24497 ], [ -80.653197960864105, 40.243203075041698 ], [ -80.653199886108098, 40.243199982420997 ], [ -80.661535880918393, 40.229809435755001 ], [ -80.661543, 40.229798 ], [ -80.664299, 40.21917 ], [ -80.664583211967496, 40.217336974915803 ], [ -80.666299, 40.206271 ], [ -80.6681, 40.199671 ], [ -80.6726, 40.192371 ], [ -80.676493564705893, 40.189033658823497 ], [ -80.679061435063005, 40.186832627088798 ], [ -80.6796, 40.186371 ], [ -80.681216038424296, 40.185783105623003 ], [ -80.682008, 40.185495 ], [ -80.683705, 40.184215 ], [ -80.686137, 40.181607 ], [ -80.687543341940696, 40.179567061600899 ], [ -80.691421413430405, 40.173941810218203 ], [ -80.699936002571604, 40.161591160039002 ], [ -80.702924207110598, 40.157256685607798 ], [ -80.708403, 40.157444 ], [ -80.709388, 40.157571 ], [ -80.710177, 40.157534 ], [ -80.765853, 40.159847 ], [ -80.766269, 40.155111 ], [ -80.775429, 40.155423 ], [ -80.785422, 40.155847 ], [ -80.800469, 40.156566 ], [ -80.804625, 40.156374 ], [ -80.849572, 40.158401 ], [ -80.862355, 40.158837 ], [ -80.882892, 40.159495 ], [ -80.881898, 40.178178 ], [ -80.881595, 40.183308 ], [ -80.880461, 40.203999 ], [ -80.879975, 40.213001 ], [ -80.879968, 40.213139 ], [ -80.879916, 40.214164 ], [ -80.880232, 40.215047 ], [ -80.879878, 40.21549 ], [ -80.879808, 40.216926 ], [ -80.878245, 40.247677 ], [ -80.876621, 40.275596 ], [ -80.875632, 40.291779 ], [ -80.875452, 40.295929 ], [ -80.874868, 40.309486 ], [ -80.873725, 40.328963 ], [ -80.873711, 40.329186 ], [ -80.872797, 40.350107 ], [ -80.872194, 40.360739 ], [ -80.872129, 40.365698 ], [ -80.872266, 40.373721 ], [ -80.871553, 40.379458 ], [ -80.867201, 40.379378 ], [ -80.867057, 40.381714 ], [ -80.866546, 40.392586 ], [ -80.866026, 40.408445 ], [ -80.865504, 40.422929 ], [ -80.871488, 40.423281 ], [ -80.877739, 40.423264 ], [ -80.889837, 40.423592 ], [ -80.889934, 40.423349 ], [ -80.941911, 40.4247 ], [ -80.940779, 40.447451 ] ] ] } },
{ "type": "Feature", "properties": { "STATEFP": "39", "COUNTYFP": "013", "GEOID": "39013", "NAME": "Belmont", "NAMELSAD": "Belmont County", "ALAND": 1378321843, "AWATER": 23691593 }, "geometry": { "type": "Polygon", "coordinates": [ [ [ -81.234297, 39.949015 ], [ -81.234139, 39.94939 ], [ -81.234053, 39.95127 ], [ -81.234026, 39.953498 ], [ -81.232392, 39.9941 ], [ -81.232436, 39.999445 ], [ -81.23216, 40.004038 ], [ -81.23191, 40.010453 ], [ -81.230659, 40.039474 ], [ -81.230263, 40.051979 ], [ -81.230148, 40.054639 ], [ -81.230133, 40.055227 ], [ -81.230044, 40.057374 ], [ -81.229864, 40.063153 ], [ -81.229197, 40.082377 ], [ -81.227535, 40.128409 ], [ -81.227044, 40.14324 ], [ -81.225924, 40.170075 ], [ -81.225811, 40.172694 ], [ -81.187434, 40.17193 ], [ -81.153651, 40.171321 ], [ -81.140838, 40.171051 ], [ -81.13652, 40.171088 ], [ -81.134704, 40.171028 ], [ -81.130259, 40.171058 ], [ -81.111949, 40.1711 ], [ -81.112072, 40.167917 ], [ -81.093892, 40.167162 ], [ -81.079318, 40.166624 ], [ -81.051432, 40.165474 ], [ -81.035504, 40.164874 ], [ -80.991492, 40.163335 ], [ -80.980399, 40.162903 ], [ -80.977791, 40.162801 ], [ -80.970154, 40.162566 ], [ -80.942443, 40.161716 ], [ -80.919242, 40.160751 ], [ -80.882892, 40.159495 ], [ -80.862355, 40.158837 ], [ -80.849572, 40.158401 ], [ -80.804625, 40.156374 ], [ -80.800469, 40.156566 ], [ -80.785422, 40.155847 ], [ -80.775429, 40.155423 ], [ -80.766269, 40.155111 ], [ -80.765853, 40.159847 ], [ -80.710177, 40.157534 ], [ -80.709388, 40.157571 ], [ -80.708403, 40.157444 ], [ -80.702924207110598, 40.157256685607798 ], [ -80.704602, 40.154823 ], [ -80.705399623798399, 40.152971045893402 ], [ -80.705994, 40.151591 ], [ -80.7064281437613, 40.149435973136399 ], [ -80.707322, 40.144999 ], [ -80.708023457883201, 40.143274238852001 ], [ -80.710042, 40.138311 ], [ -80.710070555500494, 40.137583727096498 ], [ -80.710395401072205, 40.129310316441099 ], [ -80.710441810164298, 40.128128334877601 ], [ -80.710554, 40.125271 ], [ -80.70881, 40.118088 ], [ -80.708682058620596, 40.117936796551703 ], [ -80.708204620689699, 40.117372551724102 ], [ -80.708106, 40.117256 ], [ -80.707586763088599, 40.115382232015399 ], [ -80.707002, 40.113272 ], [ -80.706702, 40.110872 ], [ -80.707702, 40.105372 ], [ -80.709102, 40.101472 ], [ -80.709807928257902, 40.100253776848398 ], [ -80.710203, 40.099572 ], [ -80.713003, 40.096872 ], [ -80.717044707281104, 40.094497345702301 ], [ -80.729109910820497, 40.0874085870553 ], [ -80.730704, 40.086472 ], [ -80.732776642190103, 40.084297424587398 ], [ -80.735112317129307, 40.081846880388902 ], [ -80.736804, 40.080072 ], [ -80.738604, 40.075672 ], [ -80.738524060383597, 40.072314536109999 ], [ -80.738504, 40.071472 ], [ -80.738467682360195, 40.071303382386702 ], [ -80.737104, 40.064972 ], [ -80.736990005009702, 40.064756223768399 ], [ -80.734304, 40.059672 ], [ -80.733104, 40.058772 ], [ -80.732444317525804, 40.055893385567003 ], [ -80.732184076110599, 40.054757786664403 ], [ -80.731167954639204, 40.050323802061897 ], [ -80.731064105567, 40.049870642474197 ], [ -80.731053992916401, 40.049826514544101 ], [ -80.730904, 40.049172 ], [ -80.730904, 40.0478465662651 ], [ -80.730904, 40.046672 ], [ -80.731396331668293, 40.039122914419998 ], [ -80.731504, 40.037472 ], [ -80.733304, 40.033272 ], [ -80.7363, 40.029929 ], [ -80.737389, 40.027593 ], [ -80.737341, 40.022969 ], [ -80.737805, 40.020761 ], [ -80.738315415856803, 40.019716006589 ], [ -80.740445163255302, 40.015355695347203 ], [ -80.740509, 40.015225 ], [ -80.741027028774297, 40.012509814700401 ], [ -80.741901, 40.007929 ], [ -80.742045, 40.005641 ], [ -80.741288437693598, 39.998718454896903 ], [ -80.741085, 39.996857 ], [ -80.740193231160802, 39.994346327729701 ], [ -80.740168814366001, 39.994277585061198 ], [ -80.740045, 39.993929 ], [ -80.739665196341306, 39.991407652819703 ], [ -80.738717, 39.985113 ], [ -80.739377935270198, 39.978395758644901 ], [ -80.739443388874705, 39.977730538193001 ], [ -80.739446309467397, 39.977700855519501 ], [ -80.739701351434306, 39.975108803733299 ], [ -80.739728692773397, 39.974830927242799 ], [ -80.739746541502996, 39.974649526385299 ], [ -80.740126, 39.970793 ], [ -80.743166, 39.969113 ], [ -80.74627, 39.966233 ], [ -80.753029000194104, 39.962670896344399 ], [ -80.755135, 39.961561 ], [ -80.756994892859595, 39.960288903468701 ], [ -80.756995640725194, 39.960288391956801 ], [ -80.758527, 39.959241 ], [ -80.759411793873895, 39.958195782484403 ], [ -80.763375, 39.953514 ], [ -80.764479, 39.95025 ], [ -80.764511, 39.946602 ], [ -80.762285099181994, 39.934422516437202 ], [ -80.761312, 39.929098 ], [ -80.756784, 39.920586 ], [ -80.756397020795305, 39.918746023404204 ], [ -80.755936, 39.916554 ], [ -80.756432, 39.91393 ], [ -80.758304, 39.910426 ], [ -80.759296, 39.909466 ], [ -80.760573816567998, 39.908939840236698 ], [ -80.760656, 39.908906 ], [ -80.762592, 39.908906 ], [ -80.768272, 39.909642 ], [ -80.772641, 39.911306 ], [ -80.782849, 39.917162 ], [ -80.787410544799698, 39.918058353303799 ], [ -80.795714, 39.91969 ], [ -80.80053, 39.919434 ], [ -80.803394, 39.918762 ], [ -80.806018, 39.91713 ], [ -80.807618, 39.914938 ], [ -80.807782481197194, 39.914481206573001 ], [ -80.809283, 39.910314 ], [ -80.809683, 39.906106 ], [ -80.809011, 39.903226 ], [ -80.806179, 39.897306 ], [ -80.802339, 39.89161 ], [ -80.796162, 39.88553 ], [ -80.793989, 39.882787 ], [ -80.791189172229906, 39.875091673739199 ], [ -80.790156, 39.872252 ], [ -80.790761, 39.86728 ], [ -80.793131, 39.863751 ], [ -80.799898, 39.858912 ], [ -80.81643, 39.853032 ], [ -80.821279, 39.849982 ], [ -80.822705, 39.850014 ], [ -80.829111, 39.850159 ], [ -80.882373, 39.852008 ], [ -80.896157, 39.852556 ], [ -80.90445, 39.852882 ], [ -80.953999, 39.85525 ], [ -80.961398, 39.855612 ], [ -80.999423, 39.857374 ], [ -81.017147, 39.858182 ], [ -81.017087, 39.859875 ], [ -81.058287, 39.861646 ], [ -81.064066, 39.861867 ], [ -81.065007, 39.861902 ], [ -81.073571, 39.862205 ], [ -81.074514, 39.862235 ], [ -81.093632, 39.862895 ], [ -81.105935, 39.863333 ], [ -81.12713, 39.864089 ], [ -81.127126, 39.865039 ], [ -81.150927, 39.865775 ], [ -81.17523, 39.866355 ], [ -81.222318, 39.867538 ], [ -81.237316, 39.867828 ], [ -81.234297, 39.949015 ] ] ] } },
{ "type": "Feature", "properties": { "STATEFP": "39", "COUNTYFP": "111", "GEOID": "39111", "NAME": "Monroe", "NAMELSAD": "Monroe County", "ALAND": 1179949519, "AWATER": 4488375 }, "geometry": { "type": "Polygon", "coordinates": [ [ [ -81.318244, 39.738579 ], [ -81.317871, 39.750574 ], [ -81.317344, 39.772178 ], [ -81.31718, 39.779084 ], [ -81.316779, 39.779102 ], [ -81.316567, 39.784328 ], [ -81.315661, 39.806983 ], [ -81.314897, 39.827914 ], [ -81.314372, 39.84538 ], [ -81.313591, 39.869471 ], [ -81.237316, 39.867828 ], [ -81.222318, 39.867538 ], [ -81.17523, 39.866355 ], [ -81.150927, 39.865775 ], [ -81.127126, 39.865039 ], [ -81.12713, 39.864089 ], [ -81.105935, 39.863333 ], [ -81.093632, 39.862895 ], [ -81.074514, 39.862235 ], [ -81.073571, 39.862205 ], [ -81.065007, 39.861902 ], [ -81.064066, 39.861867 ], [ -81.058287, 39.861646 ], [ -81.017087, 39.859875 ], [ -81.017147, 39.858182 ], [ -80.999423, 39.857374 ], [ -80.961398, 39.855612 ], [ -80.953999, 39.85525 ], [ -80.90445, 39.852882 ], [ -80.896157, 39.852556 ], [ -80.882373, 39.852008 ], [ -80.829111, 39.850159 ], [ -80.822705, 39.850014 ], [ -80.821279, 39.849982 ], [ -80.824276, 39.847159 ], [ -80.826124, 39.844238 ], [ -80.826964, 39.841656 ], [ -80.826228, 39.835802 ], [ -80.82303, 39.827484 ], [ -80.82248, 39.824971 ], [ -80.822181, 39.811708 ], [ -80.823251955040305, 39.807630073634201 ], [ -80.824462839160503, 39.803019332665698 ], [ -80.824969, 39.801092 ], [ -80.826079, 39.798584 ], [ -80.835311, 39.79069 ], [ -80.846919670172099, 39.784205768577102 ], [ -80.863048, 39.775197 ], [ -80.866329, 39.771738 ], [ -80.869092, 39.766364 ], [ -80.869933, 39.763555 ], [ -80.869867646583899, 39.7633749355386 ], [ -80.867596, 39.757116 ], [ -80.866733622033195, 39.755639220717001 ], [ -80.865339, 39.753251 ], [ -80.854717, 39.742592 ], [ -80.852738, 39.74104 ], [ -80.850479355771498, 39.7399431286942 ], [ -80.846091, 39.737812 ], [ -80.836597, 39.723925 ], [ -80.834563, 39.721582 ], [ -80.833462770066205, 39.720812350441399 ], [ -80.831551, 39.719475 ], [ -80.831428541572606, 39.719110974237203 ], [ -80.829723, 39.714041 ], [ -80.829764, 39.711839 ], [ -80.830011627245099, 39.711112219324399 ], [ -80.831871, 39.705655 ], [ -80.833882, 39.703497 ], [ -80.839112, 39.701033 ], [ -80.844721, 39.69944 ], [ -80.852, 39.69856 ], [ -80.854599, 39.697473 ], [ -80.858200760242397, 39.695526157267501 ], [ -80.861718, 39.693625 ], [ -80.863698, 39.691724 ], [ -80.864394164492694, 39.689992674921001 ], [ -80.865805, 39.686484 ], [ -80.86633, 39.683167 ], [ -80.866450385540404, 39.681509928443397 ], [ -80.86667, 39.678487 ], [ -80.8658870830821, 39.667235876145497 ], [ -80.865575, 39.662751 ], [ -80.865937917133607, 39.6593198757935 ], [ -80.866647, 39.652616 ], [ -80.867626269803594, 39.650840588501801 ], [ -80.869802, 39.646896 ], [ -80.870557665436493, 39.643768059787597 ], [ -80.870771, 39.642885 ], [ -80.870473, 39.641764 ], [ -80.870836823861794, 39.639900982382201 ], [ -80.87102, 39.638963 ], [ -80.871812122667805, 39.637074275557801 ], [ -80.872266469646803, 39.635990937989902 ], [ -80.876002, 39.627084 ], [ -80.88036, 39.620706 ], [ -80.892208, 39.616756 ], [ -80.896254000013997, 39.616756939619101 ], [ -80.896514, 39.616757 ], [ -80.906247, 39.618431 ], [ -80.916069977776601, 39.618665929214401 ], [ -80.91762, 39.618703 ], [ -80.919958465205795, 39.618331223570799 ], [ -80.925841, 39.617396 ], [ -80.933292, 39.614812 ], [ -80.936906, 39.612616 ], [ -80.943782, 39.606926 ], [ -80.948723352499101, 39.603811653911897 ], [ -80.970436, 39.590127 ], [ -80.973217185776505, 39.587892722170302 ], [ -80.9780399208381, 39.584018356740401 ], [ -80.978664, 39.583517 ], [ -80.987732, 39.577262 ], [ -80.993695, 39.571253 ], [ -80.993765454791699, 39.571204662891397 ], [ -80.996804, 39.56912 ], [ -81.00866, 39.562798 ], [ -81.0119311381643, 39.560677142715399 ], [ -81.020055, 39.55541 ], [ -81.0239, 39.552313 ], [ -81.026662, 39.548547 ], [ -81.028664286880598, 39.546642343874097 ], [ -81.030169, 39.545211 ], [ -81.038706017300996, 39.540047532873899 ], [ -81.036783, 39.572249 ], [ -81.062289, 39.573199 ], [ -81.140908, 39.576071 ], [ -81.141571, 39.576182 ], [ -81.160008, 39.576724 ], [ -81.20166, 39.577892 ], [ -81.21582, 39.578251 ], [ -81.241325, 39.578981 ], [ -81.246621, 39.579145 ], [ -81.246797, 39.576474 ], [ -81.262726, 39.576771 ], [ -81.265347, 39.57681 ], [ -81.26431, 39.605331 ], [ -81.283079, 39.605663 ], [ -81.283226, 39.605669 ], [ -81.280731, 39.678783 ], [ -81.281233, 39.692195 ], [ -81.280597, 39.706936 ], [ -81.31912, 39.707552 ], [ -81.318244, 39.738579 ] ] ] } },
{ "type": "Feature", "properties": { "STATEFP": "39", "COUNTYFP": "151", "GEOID": "39151", "NAME": "Stark", "NAMELSAD": "Stark County", "ALAND": 1489087345, "AWATER": 13606591 }, "geometry": { "type": "Polygon", "coordinates": [ [ [ -81.648974, 40.655285 ], [ -81.648921, 40.667771 ], [ -81.648677, 40.702722 ], [ -81.648447, 40.726343 ], [ -81.648459, 40.729998 ], [ -81.648417, 40.737122 ], [ -81.648235, 40.776376 ], [ -81.648233, 40.777655 ], [ -81.648176, 40.796368 ], [ -81.648123, 40.804623 ], [ -81.648123, 40.804923 ], [ -81.648049, 40.814371 ], [ -81.647991, 40.825776 ], [ -81.64795, 40.840436 ], [ -81.647924, 40.843851 ], [ -81.647924, 40.844072 ], [ -81.647859, 40.853981 ], [ -81.64784, 40.872586 ], [ -81.647843, 40.873904 ], [ -81.647843, 40.876875 ], [ -81.647695, 40.902264 ], [ -81.647733, 40.911387 ], [ -81.647735, 40.914016 ], [ -81.639371, 40.913863 ], [ -81.63746, 40.913825 ], [ -81.633861, 40.913753 ], [ -81.613828, 40.913145 ], [ -81.594733, 40.912428 ], [ -81.565299, 40.911458 ], [ -81.536441, 40.910312 ], [ -81.497145, 40.908902 ], [ -81.464076, 40.907846 ], [ -81.43064, 40.906807 ], [ -81.428688, 40.906756 ], [ -81.425689, 40.906672 ], [ -81.425472, 40.906665 ], [ -81.420363, 40.906502 ], [ -81.419786, 40.917522 ], [ -81.419783, 40.917579 ], [ -81.419239, 40.928501 ], [ -81.418832, 40.935985 ], [ -81.418047, 40.950521 ], [ -81.417088, 40.969633 ], [ -81.416826, 40.976122 ], [ -81.416334, 40.988456 ], [ -81.394188, 40.988532 ], [ -81.393249, 40.988531 ], [ -81.381674, 40.988601 ], [ -81.369954, 40.988649 ], [ -81.357529, 40.988717 ], [ -81.344909, 40.988657 ], [ -81.344628, 40.988657 ], [ -81.342366, 40.988657 ], [ -81.329592, 40.988641 ], [ -81.302728, 40.988534 ], [ -81.299767, 40.988511 ], [ -81.278753, 40.988439 ], [ -81.24939, 40.988359 ], [ -81.195679, 40.988205 ], [ -81.183849, 40.988208 ], [ -81.15331, 40.988221 ], [ -81.144786, 40.988214 ], [ -81.144297, 40.988214 ], [ -81.09882, 40.988074 ], [ -81.086312, 40.988031 ], [ -81.086568, 40.947129 ], [ -81.086601, 40.937622 ], [ -81.086712, 40.930422 ], [ -81.086726, 40.930126 ], [ -81.086679, 40.925995 ], [ -81.086675, 40.920073 ], [ -81.086685, 40.915086 ], [ -81.086684, 40.914879 ], [ -81.086684, 40.906793 ], [ -81.086679, 40.901609 ], [ -81.086686, 40.898858 ], [ -81.086723, 40.887004 ], [ -81.086734, 40.886299 ], [ -81.086758, 40.872537 ], [ -81.086819, 40.850123 ], [ -81.087041, 40.813951 ], [ -81.086757, 40.813936 ], [ -81.087093, 40.751321 ], [ -81.087082, 40.749863 ], [ -81.087081, 40.749516 ], [ -81.087137, 40.747054 ], [ -81.087208, 40.740263 ], [ -81.087258, 40.738992 ], [ -81.087235, 40.738898 ], [ -81.087278, 40.731517 ], [ -81.087391, 40.729443 ], [ -81.087289, 40.727816 ], [ -81.09312, 40.727881 ], [ -81.095877, 40.727914 ], [ -81.10225, 40.727943 ], [ -81.108251, 40.727991 ], [ -81.111693, 40.728 ], [ -81.112505, 40.728034 ], [ -81.116256, 40.728061 ], [ -81.116916, 40.728064 ], [ -81.12108, 40.728089 ], [ -81.133149, 40.728241 ], [ -81.145668, 40.728427 ], [ -81.152732, 40.728526 ], [ -81.198737, 40.729147 ], [ -81.19909, 40.722208 ], [ -81.225106, 40.723136 ], [ -81.237227, 40.723542 ], [ -81.237721, 40.715287 ], [ -81.237725, 40.715189 ], [ -81.238515, 40.699988 ], [ -81.239673, 40.67877 ], [ -81.240561, 40.662861 ], [ -81.241224, 40.652614 ], [ -81.24125, 40.650534 ], [ -81.249673, 40.650681 ], [ -81.279044, 40.651235 ], [ -81.290334, 40.651449 ], [ -81.304034, 40.6517 ], [ -81.304176, 40.651702 ], [ -81.317748, 40.651937 ], [ -81.317739, 40.651579 ], [ -81.317876, 40.651934 ], [ -81.352425, 40.65249 ], [ -81.355484, 40.652535 ], [ -81.355687, 40.652538 ], [ -81.357261, 40.652565 ], [ -81.361701, 40.652618 ], [ -81.373473, 40.652763 ], [ -81.374947, 40.652785 ], [ -81.393239, 40.653009 ], [ -81.412788, 40.653232 ], [ -81.434015, 40.653457 ], [ -81.446925, 40.65364 ], [ -81.447821, 40.653836 ], [ -81.444591, 40.655304 ], [ -81.440664, 40.657652 ], [ -81.436027, 40.658264 ], [ -81.434814, 40.659349 ], [ -81.43582, 40.661402 ], [ -81.438317, 40.662994 ], [ -81.443494, 40.663916 ], [ -81.449468, 40.665384 ], [ -81.451969, 40.665582 ], [ -81.455521, 40.666582 ], [ -81.458952, 40.666955 ], [ -81.459896, 40.666831 ], [ -81.461265, 40.666106 ], [ -81.464395, 40.660567 ], [ -81.467461, 40.655914 ], [ -81.469104, 40.654941 ], [ -81.48703, 40.652864 ], [ -81.508912, 40.650415 ], [ -81.510397, 40.650247 ], [ -81.537606, 40.647102 ], [ -81.553743, 40.645353 ], [ -81.566188, 40.64398 ], [ -81.57794, 40.64264 ], [ -81.605001, 40.639548 ], [ -81.64911, 40.634525 ], [ -81.648974, 40.655285 ] ] ] } }
]
}
